{"fetched_at":"2026-07-20T07:40:27.080Z","source":"https://celestrak.org/NORAD/elements/gp.php?GROUP=qianfan&FORMAT=JSON","constellation":"qianfan","records":[{"OBJECT_NAME":"QIANFAN-1","OBJECT_ID":"2024-140A","EPOCH":"2026-07-19T20:17:39.860736","CLASSIFICATION_TYPE":"U","MEAN_MOTION":13.51020972,"ECCENTRICITY":0.0015346,"INCLINATION":88.9729,"RA_OF_ASC_NODE":276.5445,"ARG_OF_PERICENTER":305.4121,"MEAN_ANOMALY":54.5596,"EPHEMERIS_TYPE":0,"NORAD_CAT_ID":60379,"ELEMENT_SET_NO":999,"REV_AT_EPOCH":9693,"BSTAR":0.00010575,"MEAN_MOTION_DOT":8e-7,"MEAN_MOTION_DDOT":0},{"OBJECT_NAME":"QIANFAN-2","OBJECT_ID":"2024-140B","EPOCH":"2026-07-19T20:59:16.908000","CLASSIFICATION_TYPE":"U","MEAN_MOTION":13.51016792,"ECCENTRICITY":0.0010397,"INCLINATION":88.9715,"RA_OF_ASC_NODE":276.351,"ARG_OF_PERICENTER":273.0489,"MEAN_ANOMALY":86.9472,"EPHEMERIS_TYPE":0,"NORAD_CAT_ID":60380,"ELEMENT_SET_NO":999,"REV_AT_EPOCH":9699,"BSTAR":0.00010871,"MEAN_MOTION_DOT":8.2e-7,"MEAN_MOTION_DDOT":0},{"OBJECT_NAME":"QIANFAN-3","OBJECT_ID":"2024-140C","EPOCH":"2026-07-19T19:24:25.263072","CLASSIFICATION_TYPE":"U","MEAN_MOTION":13.51017853,"ECCENTRICITY":0.001154,"INCLINATION":88.9708,"RA_OF_ASC_NODE":276.4738,"ARG_OF_PERICENTER":288.5549,"MEAN_ANOMALY":71.4348,"EPHEMERIS_TYPE":0,"NORAD_CAT_ID":60381,"ELEMENT_SET_NO":999,"REV_AT_EPOCH":9689,"BSTAR":0.00010819,"MEAN_MOTION_DOT":8.2e-7,"MEAN_MOTION_DDOT":0},{"OBJECT_NAME":"QIANFAN-4","OBJECT_ID":"2024-140D","EPOCH":"2026-07-19T18:48:44.798976","CLASSIFICATION_TYPE":"U","MEAN_MOTION":13.51020906,"ECCENTRICITY":0.0010616,"INCLINATION":88.9733,"RA_OF_ASC_NODE":276.4292,"ARG_OF_PERICENTER":276.5606,"MEAN_ANOMALY":83.4336,"EPHEMERIS_TYPE":0,"NORAD_CAT_ID":60382,"ELEMENT_SET_NO":999,"REV_AT_EPOCH":9701,"BSTAR":0.00012113,"MEAN_MOTION_DOT":9e-7,"MEAN_MOTION_DDOT":0},{"OBJECT_NAME":"QIANFAN-5","OBJECT_ID":"2024-140E","EPOCH":"2026-07-19T19:59:59.043264","CLASSIFICATION_TYPE":"U","MEAN_MOTION":13.51011515,"ECCENTRICITY":0.0012925,"INCLINATION":88.9707,"RA_OF_ASC_NODE":276.4959,"ARG_OF_PERICENTER":301.6808,"MEAN_ANOMALY":58.3082,"EPHEMERIS_TYPE":0,"NORAD_CAT_ID":60383,"ELEMENT_SET_NO":999,"REV_AT_EPOCH":9688,"BSTAR":0.00013295,"MEAN_MOTION_DOT":9.8e-7,"MEAN_MOTION_DDOT":0},{"OBJECT_NAME":"QIANFAN-6","OBJECT_ID":"2024-140F","EPOCH":"2026-07-19T20:29:29.685120","CLASSIFICATION_TYPE":"U","MEAN_MOTION":13.51019602,"ECCENTRICITY":0.0010751,"INCLINATION":88.9734,"RA_OF_ASC_NODE":276.2994,"ARG_OF_PERICENTER":283.6141,"MEAN_ANOMALY":76.3813,"EPHEMERIS_TYPE":0,"NORAD_CAT_ID":60384,"ELEMENT_SET_NO":999,"REV_AT_EPOCH":9708,"BSTAR":0.000093656,"MEAN_MOTION_DOT":7.2e-7,"MEAN_MOTION_DDOT":0},{"OBJECT_NAME":"QIANFAN-7","OBJECT_ID":"2024-140G","EPOCH":"2026-07-19T19:50:19.548960","CLASSIFICATION_TYPE":"U","MEAN_MOTION":14.27867033,"ECCENTRICITY":0.0016571,"INCLINATION":88.9763,"RA_OF_ASC_NODE":267.94,"ARG_OF_PERICENTER":48.035,"MEAN_ANOMALY":312.2253,"EPHEMERIS_TYPE":0,"NORAD_CAT_ID":60385,"ELEMENT_SET_NO":999,"REV_AT_EPOCH":10165,"BSTAR":0.00010028,"MEAN_MOTION_DOT":0.00000263,"MEAN_MOTION_DDOT":0},{"OBJECT_NAME":"QIANFAN-8","OBJECT_ID":"2024-140H","EPOCH":"2026-07-19T18:54:47.144160","CLASSIFICATION_TYPE":"U","MEAN_MOTION":13.51016002,"ECCENTRICITY":0.0014217,"INCLINATION":88.9736,"RA_OF_ASC_NODE":276.5465,"ARG_OF_PERICENTER":286.1853,"MEAN_ANOMALY":73.7733,"EPHEMERIS_TYPE":0,"NORAD_CAT_ID":60386,"ELEMENT_SET_NO":999,"REV_AT_EPOCH":9692,"BSTAR":0.00012306,"MEAN_MOTION_DOT":9.1e-7,"MEAN_MOTION_DDOT":0},{"OBJECT_NAME":"QIANFAN-9","OBJECT_ID":"2024-140J","EPOCH":"2026-07-19T20:05:43.387008","CLASSIFICATION_TYPE":"U","MEAN_MOTION":13.51021699,"ECCENTRICITY":0.0013905,"INCLINATION":88.9734,"RA_OF_ASC_NODE":276.6123,"ARG_OF_PERICENTER":285.7604,"MEAN_ANOMALY":74.2014,"EPHEMERIS_TYPE":0,"NORAD_CAT_ID":60387,"ELEMENT_SET_NO":999,"REV_AT_EPOCH":9691,"BSTAR":0.0001215,"MEAN_MOTION_DOT":9e-7,"MEAN_MOTION_DDOT":0},{"OBJECT_NAME":"QIANFAN-10","OBJECT_ID":"2024-140K","EPOCH":"2026-07-19T20:11:39.508800","CLASSIFICATION_TYPE":"U","MEAN_MOTION":13.51022918,"ECCENTRICITY":0.0012469,"INCLINATION":88.9744,"RA_OF_ASC_NODE":275.9819,"ARG_OF_PERICENTER":258.9436,"MEAN_ANOMALY":101.0313,"EPHEMERIS_TYPE":0,"NORAD_CAT_ID":60388,"ELEMENT_SET_NO":999,"REV_AT_EPOCH":9704,"BSTAR":0.00011504,"MEAN_MOTION_DOT":8.6e-7,"MEAN_MOTION_DDOT":0},{"OBJECT_NAME":"QIANFAN-11","OBJECT_ID":"2024-140L","EPOCH":"2026-07-19T19:18:25.885728","CLASSIFICATION_TYPE":"U","MEAN_MOTION":13.51016811,"ECCENTRICITY":0.0011943,"INCLINATION":88.967,"RA_OF_ASC_NODE":276.4081,"ARG_OF_PERICENTER":285.7589,"MEAN_ANOMALY":74.2245,"EPHEMERIS_TYPE":0,"NORAD_CAT_ID":60389,"ELEMENT_SET_NO":999,"REV_AT_EPOCH":9669,"BSTAR":0.00011244,"MEAN_MOTION_DOT":8.5e-7,"MEAN_MOTION_DDOT":0},{"OBJECT_NAME":"QIANFAN-12","OBJECT_ID":"2024-140M","EPOCH":"2026-07-19T19:48:08.419680","CLASSIFICATION_TYPE":"U","MEAN_MOTION":13.51018934,"ECCENTRICITY":0.0010827,"INCLINATION":88.9712,"RA_OF_ASC_NODE":276.5448,"ARG_OF_PERICENTER":295.7262,"MEAN_ANOMALY":64.2771,"EPHEMERIS_TYPE":0,"NORAD_CAT_ID":60390,"ELEMENT_SET_NO":999,"REV_AT_EPOCH":9682,"BSTAR":0.00010607,"MEAN_MOTION_DOT":8e-7,"MEAN_MOTION_DDOT":0},{"OBJECT_NAME":"QIANFAN-13","OBJECT_ID":"2024-140N","EPOCH":"2026-07-19T20:53:15.350784","CLASSIFICATION_TYPE":"U","MEAN_MOTION":13.51019055,"ECCENTRICITY":0.0010681,"INCLINATION":88.9724,"RA_OF_ASC_NODE":276.6665,"ARG_OF_PERICENTER":298.8402,"MEAN_ANOMALY":61.1676,"EPHEMERIS_TYPE":0,"NORAD_CAT_ID":60391,"ELEMENT_SET_NO":999,"REV_AT_EPOCH":9685,"BSTAR":0.00012632,"MEAN_MOTION_DOT":9.4e-7,"MEAN_MOTION_DDOT":0},{"OBJECT_NAME":"QIANFAN-14","OBJECT_ID":"2024-140P","EPOCH":"2026-07-19T19:42:17.501760","CLASSIFICATION_TYPE":"U","MEAN_MOTION":13.5101258,"ECCENTRICITY":0.0014359,"INCLINATION":88.9703,"RA_OF_ASC_NODE":276.5229,"ARG_OF_PERICENTER":297.9719,"MEAN_ANOMALY":61.9979,"EPHEMERIS_TYPE":0,"NORAD_CAT_ID":60392,"ELEMENT_SET_NO":999,"REV_AT_EPOCH":9685,"BSTAR":0.00010685,"MEAN_MOTION_DOT":8.1e-7,"MEAN_MOTION_DDOT":0},{"OBJECT_NAME":"QIANFAN-15","OBJECT_ID":"2024-140Q","EPOCH":"2026-07-19T19:54:03.017376","CLASSIFICATION_TYPE":"U","MEAN_MOTION":13.51012942,"ECCENTRICITY":0.0010051,"INCLINATION":88.9727,"RA_OF_ASC_NODE":276.5307,"ARG_OF_PERICENTER":282.1987,"MEAN_ANOMALY":77.8038,"EPHEMERIS_TYPE":0,"NORAD_CAT_ID":60393,"ELEMENT_SET_NO":999,"REV_AT_EPOCH":9684,"BSTAR":0.00010428,"MEAN_MOTION_DOT":7.9e-7,"MEAN_MOTION_DDOT":0},{"OBJECT_NAME":"QIANFAN-16","OBJECT_ID":"2024-140R","EPOCH":"2026-07-19T19:36:16.799040","CLASSIFICATION_TYPE":"U","MEAN_MOTION":13.51020996,"ECCENTRICITY":0.0012374,"INCLINATION":88.973,"RA_OF_ASC_NODE":276.6582,"ARG_OF_PERICENTER":303.0926,"MEAN_ANOMALY":56.9037,"EPHEMERIS_TYPE":0,"NORAD_CAT_ID":60394,"ELEMENT_SET_NO":999,"REV_AT_EPOCH":9675,"BSTAR":0.00010496,"MEAN_MOTION_DOT":8e-7,"MEAN_MOTION_DDOT":0}]}
