QIANFAN-1               
1 60379U 24140A   26200.84560024  .00000080  00000+0  10575-3 0  9993
2 60379  88.9729 276.5445 0015346 305.4121  54.5596 13.51020972 96939
QIANFAN-2               
1 60380U 24140B   26200.87450125  .00000082  00000+0  10871-3 0  9999
2 60380  88.9715 276.3510 0010397 273.0489  86.9472 13.51016792 96998
QIANFAN-3               
1 60381U 24140C   26200.80862573  .00000082  00000+0  10819-3 0  9999
2 60381  88.9708 276.4738 0011540 288.5549  71.4348 13.51017853 96892
QIANFAN-4               
1 60382U 24140D   26200.78385184  .00000090  00000+0  12113-3 0  9993
2 60382  88.9733 276.4292 0010616 276.5606  83.4336 13.51020906 97018
QIANFAN-5               
1 60383U 24140E   26200.83332226  .00000098  00000+0  13295-3 0  9999
2 60383  88.9707 276.4959 0012925 301.6808  58.3082 13.51011515 96888
QIANFAN-6               
1 60384U 24140F   26200.85381580  .00000072  00000+0  93656-4 0  9991
2 60384  88.9734 276.2994 0010751 283.6141  76.3813 13.51019602 97080
QIANFAN-7               
1 60385U 24140G   26200.82661515  .00000263  00000+0  10028-3 0  9991
2 60385  88.9763 267.9400 0016571  48.0350 312.2253 14.27867033101655
QIANFAN-8               
1 60386U 24140H   26200.78804565  .00000091  00000+0  12306-3 0  9991
2 60386  88.9736 276.5465 0014217 286.1853  73.7733 13.51016002 96924
QIANFAN-9               
1 60387U 24140J   26200.83730772  .00000090  00000+0  12150-3 0  9992
2 60387  88.9734 276.6123 0013905 285.7604  74.2014 13.51021699 96912
QIANFAN-10              
1 60388U 24140K   26200.84142950  .00000086  00000+0  11504-3 0  9996
2 60388  88.9744 275.9819 0012469 258.9436 101.0313 13.51022918 97048
QIANFAN-11              
1 60389U 24140L   26200.80446627  .00000085  00000+0  11244-3 0  9991
2 60389  88.9670 276.4081 0011943 285.7589  74.2245 13.51016811 96697
QIANFAN-12              
1 60390U 24140M   26200.82509745  .00000080  00000+0  10607-3 0  9993
2 60390  88.9712 276.5448 0010827 295.7262  64.2771 13.51018934 96829
QIANFAN-13              
1 60391U 24140N   26200.87031656  .00000094  00000+0  12632-3 0  9995
2 60391  88.9724 276.6665 0010681 298.8402  61.1676 13.51019055 96851
QIANFAN-14              
1 60392U 24140P   26200.82103590  .00000081  00000+0  10685-3 0  9990
2 60392  88.9703 276.5229 0014359 297.9719  61.9979 13.51012580 96851
QIANFAN-15              
1 60393U 24140Q   26200.82920159  .00000079  00000+0  10428-3 0  9991
2 60393  88.9727 276.5307 0010051 282.1987  77.8038 13.51012942 96846
QIANFAN-16              
1 60394U 24140R   26200.81686110  .00000080  00000+0  10496-3 0  9994
2 60394  88.9730 276.6582 0012374 303.0926  56.9037 13.51020996 96758
